{
  "type": "FeatureCollection",
  "features": [
    {
      "type": "Feature",
      "properties": {
        "norad_id": 39160,
        "name": "VNREDSAT 1",
        "group": "resource",
        "lat": 9.7085616545326,
        "lon": 41.127350607868465,
        "alt_km": 678.6012350930087,
        "timestamp": "2025-12-13T05:42:57.154036+00:00",
        "meta_object_name": "VNREDSAT 1",
        "meta_object_id": "2013-021B",
        "meta_epoch": "2025-12-12T06:43:16.090176",
        "meta_mean_motion": 14.64922443,
        "meta_eccentricity": 0.0001294,
        "meta_inclination": 97.9371,
        "meta_ra_of_asc_node": 41.5706,
        "meta_arg_of_pericenter": 79.4414,
        "meta_mean_anomaly": 280.6935,
        "meta_ephemeris_type": 0,
        "meta_classification_type": "U",
        "meta_norad_cat_id": 39160,
        "meta_element_set_no": 999,
        "meta_rev_at_epoch": 67292,
        "meta_bstar": 0.00025171225,
        "meta_mean_motion_dot": 1.301e-05,
        "meta_mean_motion_ddot": 0,
        "tle_line1": "1 39160U 13021B   25346.28004734  .00001301  00000+0  25171-3 0  9997",
        "tle_line2": "2 39160  97.9371  41.5706 0001294  79.4414 280.6935 14.64922443672923"
      },
      "geometry": {
        "type": "Point",
        "coordinates": [
          41.127350607868465,
          9.7085616545326
        ]
      }
    },
    {
      "type": "Feature",
      "properties": {
        "norad_id": 39227,
        "name": "ARIRANG-5 (KOMPSAT-5)",
        "group": "resource",
        "lat": 20.433828590611018,
        "lon": -5.608620234915661,
        "alt_km": 553.7528148865531,
        "timestamp": "2025-12-13T05:42:57.154046+00:00",
        "meta_object_name": "ARIRANG-5 (KOMPSAT-5)",
        "meta_object_id": "2013-042A",
        "meta_epoch": "2025-12-12T08:15:35.540640",
        "meta_mean_motion": 15.0450259,
        "meta_eccentricity": 0.00036613,
        "meta_inclination": 97.6144,
        "meta_ra_of_asc_node": 170.6537,
        "meta_arg_of_pericenter": 56.8295,
        "meta_mean_anomaly": 303.3282,
        "meta_ephemeris_type": 0,
        "meta_classification_type": "U",
        "meta_norad_cat_id": 39227,
        "meta_element_set_no": 999,
        "meta_rev_at_epoch": 67576,
        "meta_bstar": 0.00028218123,
        "meta_mean_motion_dot": 3.891e-05,
        "meta_mean_motion_ddot": 0,
        "tle_line1": "1 39227U 13042A   25346.34416135  .00003891  00000+0  28218-3 0  9994",
        "tle_line2": "2 39227  97.6144 170.6537 0003661  56.8295 303.3282 15.04502590675769"
      },
      "geometry": {
        "type": "Point",
        "coordinates": [
          -5.608620234915661,
          20.433828590611018
        ]
      }
    },
    {
      "type": "Feature",
      "properties": {
        "norad_id": 39418,
        "name": "SKYSAT-A",
        "group": "resource",
        "lat": -4.913740697838306,
        "lon": -143.20973328294724,
        "alt_km": 525.8043283819889,
        "timestamp": "2025-12-13T05:42:57.154057+00:00",
        "meta_object_name": "SKYSAT-A",
        "meta_object_id": "2013-066C",
        "meta_epoch": "2025-12-12T01:53:26.618784",
        "meta_mean_motion": 15.11597533,
        "meta_eccentricity": 0.00206482,
        "meta_inclination": 97.4112,
        "meta_ra_of_asc_node": 36.3072,
        "meta_arg_of_pericenter": 238.8896,
        "meta_mean_anomaly": 121.0309,
        "meta_ephemeris_type": 0,
        "meta_classification_type": "U",
        "meta_norad_cat_id": 39418,
        "meta_element_set_no": 999,
        "meta_rev_at_epoch": 66020,
        "meta_bstar": 0.00035227181,
        "meta_mean_motion_dot": 5.948e-05,
        "meta_mean_motion_ddot": 0,
        "tle_line1": "1 39418U 13066C   25346.07878031  .00005948  00000+0  35227-3 0  9992",
        "tle_line2": "2 39418  97.4112  36.3072 0020648 238.8896 121.0309 15.11597533660206"
      },
      "geometry": {
        "type": "Point",
        "coordinates": [
          -143.20973328294724,
          -4.913740697838306
        ]
      }
    },
    {
      "type": "Feature",
      "properties": {
        "norad_id": 39419,
        "name": "DUBAISAT-2",
        "group": "resource",
        "lat": -38.42740168427151,
        "lon": -16.414189062631394,
        "alt_km": 540.2179261127267,
        "timestamp": "2025-12-13T05:42:57.154068+00:00",
        "meta_object_name": "DUBAISAT-2",
        "meta_object_id": "2013-066D",
        "meta_epoch": "2025-12-12T06:00:19.170432",
        "meta_mean_motion": 15.08355451,
        "meta_eccentricity": 0.0010765,
        "meta_inclination": 97.4459,
        "meta_ra_of_asc_node": 336.6725,
        "meta_arg_of_pericenter": 323.0585,
        "meta_mean_anomaly": 36.9902,
        "meta_ephemeris_type": 0,
        "meta_classification_type": "U",
        "meta_norad_cat_id": 39419,
        "meta_element_set_no": 999,
        "meta_rev_at_epoch": 65819,
        "meta_bstar": 0.00060145765,
        "meta_mean_motion_dot": 9.299e-05,
        "meta_mean_motion_ddot": 0,
        "tle_line1": "1 39419U 13066D   25346.25022188  .00009299  00000+0  60146-3 0  9998",
        "tle_line2": "2 39419  97.4459 336.6725 0010765 323.0585  36.9902 15.08355451658198"
      },
      "geometry": {
        "type": "Point",
        "coordinates": [
          -16.414189062631394,
          -38.42740168427151
        ]
      }
    },
    {
      "type": "Feature",
      "properties": {
        "norad_id": 39574,
        "name": "GPM-CORE",
        "group": "resource",
        "lat": 15.07090423642961,
        "lon": 23.785561030475694,
        "alt_km": 431.8213296825961,
        "timestamp": "2025-12-13T05:42:57.154078+00:00",
        "meta_object_name": "GPM-CORE",
        "meta_object_id": "2014-009C",
        "meta_epoch": "2025-12-12T04:08:45.508416",
        "meta_mean_motion": 15.44450966,
        "meta_eccentricity": 0.00098424,
        "meta_inclination": 64.9735,
        "meta_ra_of_asc_node": 214.5785,
        "meta_arg_of_pericenter": 245.0797,
        "meta_mean_anomaly": 114.9321,
        "meta_ephemeris_type": 0,
        "meta_classification_type": "U",
        "meta_norad_cat_id": 39574,
        "meta_element_set_no": 999,
        "meta_rev_at_epoch": 66892,
        "meta_bstar": 0.00025125398,
        "meta_mean_motion_dot": 0.00011477,
        "meta_mean_motion_ddot": 0,
        "tle_line1": "1 39574U 14009C   25346.17274894  .00011477  00000+0  25125-3 0  9991",
        "tle_line2": "2 39574  64.9735 214.5785 0009842 245.0797 114.9321 15.44450966668929"
      },
      "geometry": {
        "type": "Point",
        "coordinates": [
          23.785561030475694,
          15.07090423642961
        ]
      }
    },
    {
      "type": "Feature",
      "properties": {
        "norad_id": 39634,
        "name": "SENTINEL-1A",
        "group": "resource",
        "lat": -40.27991024356605,
        "lon": 165.4697113151382,
        "alt_km": 702.9418954297698,
        "timestamp": "2025-12-13T05:42:57.154088+00:00",
        "meta_object_name": "SENTINEL-1A",
        "meta_object_id": "2014-016A",
        "meta_epoch": "2025-12-12T07:18:48.342816",
        "meta_mean_motion": 14.59200248,
        "meta_eccentricity": 0.00012343,
        "meta_inclination": 98.1805,
        "meta_ra_of_asc_node": 351.5522,
        "meta_arg_of_pericenter": 84.2396,
        "meta_mean_anomaly": 275.8945,
        "meta_ephemeris_type": 0,
        "meta_classification_type": "U",
        "meta_norad_cat_id": 39634,
        "meta_element_set_no": 999,
        "meta_rev_at_epoch": 62276,
        "meta_bstar": 7.2054053e-05,
        "meta_mean_motion_dot": 2.94e-06,
        "meta_mean_motion_ddot": 0,
        "tle_line1": "1 39634U 14016A   25346.30472619  .00000294  00000+0  72054-4 0  9995",
        "tle_line2": "2 39634  98.1805 351.5522 0001234  84.2396 275.8945 14.59200248622761"
      },
      "geometry": {
        "type": "Point",
        "coordinates": [
          165.4697113151382,
          -40.27991024356605
        ]
      }
    },
    {
      "type": "Feature",
      "properties": {
        "norad_id": 39731,
        "name": "KAZEOSAT 1",
        "group": "resource",
        "lat": 15.216554973221319,
        "lon": -118.57874842048146,
        "alt_km": 752.232989794752,
        "timestamp": "2025-12-13T05:42:57.154099+00:00",
        "meta_object_name": "KAZEOSAT 1",
        "meta_object_id": "2014-024A",
        "meta_epoch": "2025-12-12T07:18:26.438688",
        "meta_mean_motion": 14.42062824,
        "meta_eccentricity": 0.00011082,
        "meta_inclination": 98.3429,
        "meta_ra_of_asc_node": 58.2211,
        "meta_arg_of_pericenter": 94.593,
        "meta_mean_anomaly": 265.5387,
        "meta_ephemeris_type": 0,
        "meta_classification_type": "U",
        "meta_norad_cat_id": 39731,
        "meta_element_set_no": 999,
        "meta_rev_at_epoch": 61162,
        "meta_bstar": 0.00017673183,
        "meta_mean_motion_dot": 5.38e-06,
        "meta_mean_motion_ddot": 0,
        "tle_line1": "1 39731U 14024A   25346.30447267  .00000538  00000+0  17673-3 0  9999",
        "tle_line2": "2 39731  98.3429  58.2211 0001108  94.5930 265.5387 14.42062824611624"
      },
      "geometry": {
        "type": "Point",
        "coordinates": [
          -118.57874842048146,
          15.216554973221319
        ]
      }
    }
  ]
}